NORAD_CAT_ID,OBJECT_NAME,OBJECT_TYPE,EPOCH,MEAN_MOTION,ECCENTRICITY,INCLINATION,RA_OF_ASC_NODE,ARG_OF_PERICENTER,MEAN_ANOMALY,BSTAR,MEAN_MOTION_DOT,MEAN_MOTION_DDOT,TLE_LINE0,TLE_LINE1,TLE_LINE2,SEMIMAJOR_AXIS,PERIOD,APOGEE,PERIGEE,DECAYED
55949.0,STARLINK-5899,PAYLOAD,2023-07-20 11:30:12,15.6991865,0.0003513,69.9981,190.4312,266.4914,93.588,1.4885e-05,1.577e-05,0.0,0 STARLINK-5899,1 55949U 23037AM  23201.47931669  .00001577  00000-0  14885-4 0  9990,2 55949  69.9981 190.4312 0003513 266.4914  93.5880 15.69918650 20106,6737.267,91.724,361.499,356.765,0.0
55949.0,STARLINK-5899,PAYLOAD,2023-07-24 10:18:50,15.69928034,0.0003223,69.9981,179.324,262.7086,97.3744,1.322e-05,1.377e-05,0.0,0 STARLINK-5899,1 55949U 23037AM  23205.42974965  .00001377  00000-0  13220-4 0  9995,2 55949  69.9981 179.3240 0003223 262.7086  97.3744 15.69928034 20387,6737.24,91.724,361.276,356.933,0.0
55949.0,STARLINK-5899,PAYLOAD,2023-07-25 07:43:22,15.69919663,0.000292,69.9989,176.8197,265.5299,94.5563,1.0328e-05,1.029e-05,0.0,0 STARLINK-5899,1 55949U 23037AM  23206.32179216  .00001029  00000-0  10328-4 0  9991,2 55949  69.9989 176.8197 0002920 265.5299  94.5563 15.69919663 20520,6737.264,91.724,361.096,357.162,0.0
55949.0,STARLINK-5899,PAYLOAD,2023-07-26 08:11:24,15.69924175,0.0003086,69.997,173.9534,272.6814,87.4028,8.6029e-08,-2.02e-06,0.0,0 STARLINK-5899,1 55949U 23037AM  23207.34125779 -.00000202  00000-0  86029-7 0  9996,2 55949  69.9970 173.9534 0003086 272.6814  87.4028 15.69924175 20687,6737.251,91.724,361.195,357.037,0.0
55949.0,STARLINK-5899,PAYLOAD,2023-07-27 01:00:42,15.69901397,0.0003702,70.0014,171.9846,273.8354,86.2419,-2.2406e-05,-2.904e-05,0.0,0 STARLINK-5899,1 55949U 23037AM  23208.04215791 -.00002904  00000-0 -22406-4 0  9996,2 55949  70.0014 171.9846 0003702 273.8354  86.2419 15.69901397 21133,6737.316,91.726,361.675,356.687,0.0
55949.0,STARLINK-5899,PAYLOAD,2023-07-27 04:04:12,15.69908599,0.0003532,69.9978,171.6229,268.4639,91.6152,-1.3903e-05,-1.883e-05,0.0,0 STARLINK-5899,1 55949U 23037AM  23208.16958624 -.00001883  00000-0 -13903-4 0  9995,2 55949  69.9978 171.6229 0003532 268.4639  91.6152 15.69908599 21155,6737.295,91.725,361.54,356.781,0.0
55949.0,STARLINK-5899,PAYLOAD,2023-07-27 10:11:12,15.6991393,0.0002782,69.9982,170.9046,260.8639,99.2242,-8.1426e-06,-1.191e-05,0.0,0 STARLINK-5899,1 55949U 23037AM  23208.42445019 -.00001191  00000-0 -81426-5 0  9991,2 55949  69.9982 170.9046 0002782 260.8639  99.2242 15.69913930 20856,6737.28,91.725,361.02,357.271,0.0
55949.0,STARLINK-5899,PAYLOAD,2023-07-27 14:46:27,15.69917812,0.0003283,69.9993,170.3686,270.2244,89.8576,-1.1544e-06,-3.51e-06,0.0,0 STARLINK-5899,1 55949U 23037AM  23208.61559669 -.00000351  00000-0 -11544-5 0  9990,2 55949  69.9993 170.3686 0003283 270.2244  89.8576 15.69917812 21226,6737.269,91.725,361.346,356.922,0.0
55949.0,STARLINK-5899,PAYLOAD,2023-07-28 07:35:43,15.69932456,0.0003233,69.9985,168.3975,267.2182,92.8644,-1.1542e-06,-3.52e-06,0.0,0 STARLINK-5899,1 55949U 23037AM  23209.31647118 -.00000352  00000-0 -11542-5 0  9994,2 55949  69.9985 168.3975 0003233 267.2182  92.8644 15.69932456 21330,6737.227,91.724,361.27,356.914,0.0
55949.0,STARLINK-5899,PAYLOAD,2023-07-29 14:10:46,15.69917624,0.0002913,69.9981,164.8162,272.0118,88.0744,1.1498e-05,1.17e-05,0.0,0 STARLINK-5899,1 55949U 23037AM  23210.59081429  .00001170  00000-0  11498-4 0  9999,2 55949  69.9981 164.8162 0002913 272.0118  88.0744 15.69917624 21532,6737.27,91.725,361.097,357.172,0.0
55949.0,STARLINK-5899,PAYLOAD,2023-07-30 08:31:47,15.69927421,0.000312,69.9978,162.6668,269.5823,90.5015,2.2233e-06,5.5e-07,0.0,0 STARLINK-5899,1 55949U 23037AM  23211.35541157  .00000055  00000-0  22233-5 0  9994,2 55949  69.9978 162.6668 0003120 269.5823  90.5015 15.69927421 21658,6737.242,91.724,361.209,357.005,0.0
55949.0,STARLINK-5899,PAYLOAD,2023-07-31 02:52:49,15.69920278,0.0003376,69.9978,160.5165,268.7864,91.2945,-1.0726e-05,-1.502e-05,0.0,0 STARLINK-5899,1 55949U 23037AM  23212.12001634 -.00001502  00000-0 -10726-4 0  9994,2 55949  69.9978 160.5165 0003376 268.7864  91.2945 15.69920278 21772,6737.262,91.724,361.402,356.853,0.0
55949.0,STARLINK-5899,PAYLOAD,2023-07-31 22:45:35,15.69922779,0.0003245,69.9996,158.188,263.3687,96.7139,2.7214e-05,3.061e-05,0.0,0 STARLINK-5899,1 55949U 23037AM  23212.94832706  .00003061  00000-0  27214-4 0  9996,2 55949  69.9996 158.1880 0003245 263.3687  96.7139 15.69922779 21906,6737.255,91.724,361.306,356.934,0.0
55949.0,STARLINK-5899,PAYLOAD,2023-08-01 23:13:38,15.69920173,0.0003321,69.9998,155.3211,273.5136,86.5679,3.2453e-05,3.691e-05,0.0,0 STARLINK-5899,1 55949U 23037AM  23213.96780559  .00003691  00000-0  32453-4 0  9997,2 55949  69.9998 155.3211 0003321 273.5136  86.5679 15.69920173 22062,6737.262,91.724,361.365,356.89,0.0
55949.0,STARLINK-5899,PAYLOAD,2023-08-02 12:59:23,15.69931964,0.0002806,70.0007,153.7104,267.8225,92.2649,4.8128e-05,5.58e-05,0.0,0 STARLINK-5899,1 55949U 23037AM  23214.54124912  .00005580  00000-0  48128-4 0  9992,2 55949  70.0007 153.7104 0002806 267.8225  92.2649 15.69931964 22152,6737.229,91.724,360.984,357.203,0.0
55949.0,STARLINK-5899,PAYLOAD,2023-08-03 07:20:26,15.69908469,0.0003408,69.998,151.5595,274.6682,85.4124,-2.4894e-05,-3.203e-05,0.0,0 STARLINK-5899,1 55949U 23037AM  23215.30586510 -.00003203  00000-0 -24894-4 0  9999,2 55949  69.9980 151.5595 0003408 274.6682  85.4124 15.69908469 22270,6737.296,91.725,361.457,356.865,0.0
55949.0,STARLINK-5899,PAYLOAD,2023-08-03 22:37:57,15.69928425,0.0002916,69.9993,149.7703,268.9309,91.1553,-1.1223e-06,-3.47e-06,0.0,0 STARLINK-5899,1 55949U 23037AM  23215.94302149 -.00000347  00000-0 -11223-5 0  9992,2 55949  69.9993 149.7703 0002916 268.9309  91.1553 15.69928425 22374,6737.239,91.724,361.068,357.139,0.0
55949.0,STARLINK-5899,PAYLOAD,2023-08-04 23:05:58,15.69931511,0.0002921,69.9993,146.9025,276.0698,84.0165,9.5852e-06,9.4e-06,0.0,0 STARLINK-5899,1 55949U 23037AM  23216.96248160  .00000940  00000-0  95852-5 0  9994,2 55949  69.9993 146.9025 0002921 276.0698  84.0165 15.69931511 22535,6737.23,91.724,361.063,357.127,0.0
55949.0,STARLINK-5899,PAYLOAD,2023-08-05 06:44:44,15.69924536,0.0003651,69.9979,146.005,272.8126,87.2652,9.0143e-08,-2.02e-06,0.0,0 STARLINK-5899,1 55949U 23037AM  23217.28106742 -.00000202  00000-0  90143-7 0  9991,2 55949  69.9979 146.0050 0003651 272.8126  87.2652 15.69924536 22589,6737.25,91.724,361.575,356.655,0.0
55949.0,STARLINK-5899,PAYLOAD,2023-08-06 02:37:31,15.69898598,0.0003014,70.0004,143.6795,262.86,97.2253,-4.8784e-05,-6.067e-05,0.0,0 STARLINK-5899,1 55949U 23037AM  23218.10939588 -.00006067  00000-0 -48784-4 0  9992,2 55949  70.0004 143.6795 0003014 262.8600  97.2253 15.69898598 22710,6737.324,91.726,361.22,357.158,0.0
55949.0,STARLINK-5899,PAYLOAD,2023-08-07 01:33:46,15.69949343,0.000333,69.9999,140.9912,268.4678,91.6136,4.863e-05,5.645e-05,0.0,0 STARLINK-5899,1 55949U 23037AM  23219.06512661  .00005645  00000-0  48630-4 0  9996,2 55949  69.9999 140.9912 0003330 268.4678  91.6136 15.69949343 22868,6737.179,91.723,361.287,356.8,0.0
55949.0,STARLINK-5899,PAYLOAD,2023-08-07 04:37:18,15.69906271,0.0002576,69.9999,140.6323,272.92,87.1701,-3.6427e-05,-4.586e-05,0.0,0 STARLINK-5899,1 55949U 23037AM  23219.19258063 -.00004586  00000-0 -36427-4 0  9999,2 55949  69.9999 140.6323 0002576 272.9200  87.1701 15.69906271 22886,6737.302,91.725,360.903,357.432,0.0
55949.0,STARLINK-5899,PAYLOAD,2023-08-07 12:16:03,15.69920906,0.0003601,69.9991,139.7366,271.8762,88.2021,2.1342e-05,2.354e-05,0.0,0 STARLINK-5899,1 55949U 23037AM  23219.51115672  .00002354  00000-0  21342-4 0  9992,2 55949  69.9991 139.7366 0003601 271.8762  88.2021 15.69920906 22939,6737.26,91.724,361.551,356.699,0.0
55949.0,STARLINK-5899,PAYLOAD,2023-08-07 21:26:34,15.69928069,0.0003009,70.0001,138.6629,264.2655,95.8198,6.7641e-05,7.929e-05,0.0,0 STARLINK-5899,1 55949U 23037AM  23219.89345240  .00007929  00000-0  67641-4 0  9994,2 55949  70.0001 138.6629 0003009 264.2655  95.8198 15.69928069 22996,6737.24,91.724,361.132,357.078,0.0
55949.0,STARLINK-5899,PAYLOAD,2023-08-08 05:05:20,15.69913935,0.0003186,69.9996,137.7664,278.2213,81.8621,3.0574e-05,3.463e-05,0.0,0 STARLINK-5899,1 55949U 23037AM  23220.21204500  .00003463  00000-0  30574-4 0  9999,2 55949  69.9996 137.7664 0003186 278.2213  81.8621 15.69913935 23045,6737.28,91.725,361.292,356.999,0.0
55949.0,STARLINK-5899,PAYLOAD,2023-08-08 17:19:20,15.69935298,0.0003366,69.9995,136.3332,275.2761,84.805,-1.0621e-05,-1.49e-05,0.0,0 STARLINK-5899,1 55949U 23037AM  23220.72176709 -.00001490  00000-0 -10621-4 0  9995,2 55949  69.9995 136.3332 0003366 275.2761  84.8050 15.69935298 23120,6737.219,91.724,361.352,356.816,0.0
55949.0,STARLINK-5899,PAYLOAD,2023-08-09 04:01:36,15.69932352,0.0003864,69.9981,135.0788,263.4773,96.5983,-1.1493e-05,-1.595e-05,0.0,0 STARLINK-5899,1 55949U 23037AM  23221.16778779 -.00001595  00000-0 -11493-4 0  9993,2 55949  69.9981 135.0788 0003864 263.4773  96.5983 15.69932352 23191,6737.228,91.724,361.696,356.489,0.0
55949.0,STARLINK-5899,PAYLOAD,2023-08-11 00:22:26,15.69909507,0.0003745,69.9983,129.8828,268.9923,91.0844,8.1417e-05,9.583e-05,0.0,0 STARLINK-5899,1 55949U 23037AM  23223.01558301  .00009583  00000-0  81417-4 0  9992,2 55949  69.9983 129.8828 0003745 268.9923  91.0844 15.69909507 23488,6737.293,91.725,361.681,356.635,0.0
55949.0,STARLINK-5899,PAYLOAD,2023-08-11 03:25:55,15.69930699,0.0003835,69.9987,129.5244,266.7076,93.3681,2.07e-06,3.6e-07,0.0,0 STARLINK-5899,1 55949U 23037AM  23223.14300367  .00000036  00000-0  20700-5 0  9996,2 55949  69.9987 129.5244 0003835 266.7076  93.3681 15.69930699 23509,6737.232,91.724,361.681,356.514,0.0
55949.0,STARLINK-5899,PAYLOAD,2023-08-11 18:43:28,15.69872172,0.0003108,69.9945,127.7342,263.177,96.9072,9.7827e-05,0.00011541,0.0,0 STARLINK-5899,1 55949U 23037AM  23223.78018991  .00011541  00000-0  97827-4 0  9991,2 55949  69.9945 127.7342 0003108 263.1770  96.9072 15.69872172 23602,6737.4,91.727,361.359,357.171,0.0
